NORAD_CAT_ID,OBJECT_NAME,OBJECT_TYPE,EPOCH,MEAN_MOTION,ECCENTRICITY,INCLINATION,RA_OF_ASC_NODE,ARG_OF_PERICENTER,MEAN_ANOMALY,BSTAR,MEAN_MOTION_DOT,MEAN_MOTION_DDOT,TLE_LINE0,TLE_LINE1,TLE_LINE2,SEMIMAJOR_AXIS,PERIOD,APOGEE,PERIGEE,DECAYED
51894.0,STARLINK-3595,PAYLOAD,2022-04-17 06:00:00,15.73142312,9.79e-05,53.2118,283.1928,85.7037,250.6192,0.00043413,0.00060597,0.0,0 STARLINK-3595,1 51894U 22022AU  22107.25001157  .00060597  00000-0  43413-3 0  9993,2 51894  53.2118 283.1928 0000979  85.7037 250.6192 15.73142312  8302,6728.06,91.537,350.583,349.266,0.0
51894.0,STARLINK-3595,PAYLOAD,2022-04-17 14:00:01,15.732026,9.78e-05,53.2121,281.5434,85.1286,340.0653,0.00021492,0.00029652,0.0,0 STARLINK-3595,1 51894U 22022AU  22107.58334491  .00029652  00000-0  21492-3 0  9999,2 51894  53.2121 281.5434 0000978  85.1286 340.0653 15.73202600  3701,6727.888000000001,91.533,350.411,349.095,0.0
51894.0,STARLINK-3595,PAYLOAD,2022-04-17 22:00:00,15.73214365,0.0001024,53.2123,279.8954,68.1107,86.0282,0.00058696,0.00082621,0.0,0 STARLINK-3595,1 51894U 22022AU  22107.91667824  .00082621  00000-0  58696-3 0  9996,2 51894  53.2123 279.8954 0001024  68.1107  86.0282 15.73214365  3690,6727.854,91.532,350.408,349.03,0.0
51894.0,STARLINK-3595,PAYLOAD,2022-04-18 06:00:00,15.73226519,0.0001139,53.2126,278.2435,75.8131,167.3109,0.00010916,0.00014744,0.0,0 STARLINK-3595,1 51894U 22022AU  22108.25001157  .00014744  00000-0  10916-3 0  9999,2 51894  53.2126 278.2435 0001139  75.8131 167.3109 15.73226519  8464,6727.82,91.532,350.451,348.918,0.0
51894.0,STARLINK-3595,PAYLOAD,2022-04-18 14:00:01,15.732505599999998,0.0001347,53.2126,276.5942,77.9131,254.1672,-0.00043533,-0.00061404,0.0,0 STARLINK-3595,1 51894U 22022AU  22108.58334491 -.00061404  00000-0 -43533-3 0  9993,2 51894  53.2126 276.5942 0001347  77.9131 254.1672 15.73250560  3707,6727.751,91.53,350.522,348.71,0.0
51894.0,STARLINK-3595,PAYLOAD,2022-04-18 20:00:01,15.73216166,0.0001426999999999,53.2124,275.3583,68.8172,239.9922,-0.00018907,-0.00027088,0.0,0 STARLINK-3595,1 51894U 22022AU  22108.83334491 -.00027088  00000-0 -18907-3 0  9998,2 51894  53.2124 275.3583 0001427  68.8172 239.9922 15.73216166  8557,6727.849,91.532,350.6740000000001,348.754,0.0
51894.0,STARLINK-3595,PAYLOAD,2022-04-18 22:00:00,15.73190133,0.0001344,53.2121,274.946,66.4492,354.603,0.00017297,0.00023713,0.0,0 STARLINK-3595,1 51894U 22022AU  22108.91667824  .00023713  00000-0  17297-3 0  9996,2 51894  53.2121 274.9460 0001344  66.4492 354.6030 15.73190133  3702,6727.9230000000025,91.534,350.6930000000001,348.884,0.0
51894.0,STARLINK-3595,PAYLOAD,2022-04-19 06:00:00,15.7318659,0.0001059,53.212,273.2943,73.1537,76.8372,0.0006502999999999,0.00091593,0.0,0 STARLINK-3595,1 51894U 22022AU  22109.25001157  .00091593  00000-0  65030-3 0  9994,2 51894  53.2120 273.2943 0001059  73.1537  76.8372 15.73186590  8616,6727.933000000001,91.534,350.511,349.086,0.0
51894.0,STARLINK-3595,PAYLOAD,2022-04-19 14:00:01,15.73284629,0.0001055,53.2124,271.6453,71.9865,166.9303,-0.00064181,-0.00090058,0.0,0 STARLINK-3595,1 51894U 22022AU  22109.58334491 -.00090058  00000-0 -64181-3 0  9993,2 51894  53.2124 271.6453 0001055  71.9865 166.9303 15.73284629  3706,6727.654,91.528,350.22900000000016,348.809,0.0
51894.0,STARLINK-3595,PAYLOAD,2022-04-20 06:00:00,15.73156354,0.0001233,53.2127,268.3452,68.9414,347.9190000000001,0.00010773,0.00014497,0.0,0 STARLINK-3595,1 51894U 22022AU  22110.25001157  .00014497  00000-0  10773-3 0  9998,2 51894  53.2127 268.3452 0001233  68.9414 347.9190 15.73156354  8775,6728.02,91.536,350.714,349.055,0.0
51894.0,STARLINK-3595,PAYLOAD,2022-04-20 14:00:01,15.73198664,0.0001409,53.2127,266.6964,66.5979,79.1377,-0.00016733,-0.00024035,0.0,0 STARLINK-3595,1 51894U 22022AU  22110.58334491 -.00024035  00000-0 -16733-3 0  9997,2 51894  53.2127 266.6964 0001409  66.5979  79.1377 15.73198664  3696,6727.899,91.533,350.712,348.816,0.0
51894.0,STARLINK-3595,PAYLOAD,2022-04-20 22:00:00,15.73165014,0.0001361999999999,53.212,265.048,52.4872,182.2024,0.00053713,0.00075328,0.0,0 STARLINK-3595,1 51894U 22022AU  22110.91667824  .00075328  00000-0  53713-3 0  9991,2 51894  53.2120 265.0480 0001362  52.4872 182.2024 15.73165014  8883,6727.995,91.535,350.776,348.944,0.0
51894.0,STARLINK-3595,PAYLOAD,2022-04-21 06:00:00,15.73218047,0.0001116,53.214,263.3903,60.5192,263.0296,-0.00056327,-0.00078992,0.0,0 STARLINK-3595,1 51894U 22022AU  22111.25001157 -.00078992  00000-0 -56327-3 0  9996,2 51894  53.2140 263.3903 0001116  60.5192 263.0296 15.73218047  8938,6727.844,91.532,350.46,348.958,0.0
51894.0,STARLINK-3595,PAYLOAD,2022-04-21 14:00:01,15.73210226,0.0001344,53.2122,261.7479,59.9684,352.5614,-0.00012196,-0.00017708,0.0,0 STARLINK-3595,1 51894U 22022AU  22111.58334491 -.00017708  00000-0 -12196-3 0  9996,2 51894  53.2122 261.7479 0001344  59.9684 352.5614 15.73210226  3708,6727.866,91.533,350.635,348.827,0.0
51894.0,STARLINK-3595,PAYLOAD,2022-04-21 22:00:00,15.73189936,0.0001336,53.212,260.0993,46.1664,95.3366,0.00045433,0.00063599,0.0,0 STARLINK-3595,1 51894U 22022AU  22111.91667824  .00063599  00000-0  45433-3 0  9999,2 51894  53.2120 260.0993 0001336  46.1664  95.3366 15.73189936  3716,6727.924,91.534,350.68800000000016,348.89,0.0
51894.0,STARLINK-3595,PAYLOAD,2022-04-22 06:00:00,15.73231724,0.0001238,53.213,258.4466,51.258,179.19099999999997,0.00031148,0.00043379,0.0,0 STARLINK-3595,1 51894U 22022AU  22112.25001157  .00043379  00000-0  31148-3 0  9990,2 51894  53.2130 258.4466 0001238  51.2580 179.1910 15.73231724  9094,6727.805,91.531,350.50300000000016,348.837,0.0
51894.0,STARLINK-3595,PAYLOAD,2022-04-22 14:00:01,15.73256046,0.0001440999999999,53.2122,256.79900000000004,50.4983,268.9176,-0.00072927,-0.00101983,0.0,0 STARLINK-3595,1 51894U 22022AU  22112.58334491 -.00101983  00000-0 -72927-3 0  9994,2 51894  53.2122 256.7990 0001441  50.4983 268.9176 15.73256046  9143,6727.735,91.53,350.57,348.631,0.0
51894.0,STARLINK-3595,PAYLOAD,2022-04-23 06:00:02,15.73111648,0.0001277,53.2113,253.4985,48.7791,88.5672,0.00051918,0.00072599,0.0,0 STARLINK-3595,1 51894U 22022AU  22113.25002315  .00072599  00000-0  51918-3 0  9991,2 51894  53.2113 253.4985 0001277  48.7791  88.5672 15.73111648  9241,6728.147,91.538,350.871,349.153,0.0
51894.0,STARLINK-3595,PAYLOAD,2022-04-23 14:00:01,15.73170236,0.0001408,53.2116,251.8504,42.2772,183.855,0.0003408,0.00047419,0.0,0 STARLINK-3595,1 51894U 22022AU  22113.58334491  .00047419  00000-0  34080-3 0  9994,2 51894  53.2116 251.8504 0001408  42.2772 183.8550 15.73170236  3692,6727.98,91.535,350.792,348.898,0.0
51894.0,STARLINK-3595,PAYLOAD,2022-04-24 06:00:00,15.73200666,0.0001509,53.2117,248.5495,45.5653,358.4655,0.00061386,0.00086425,0.0,0 STARLINK-3595,1 51894U 22022AU  22114.25001157  .00086425  00000-0  61386-3 0  9998,2 51894  53.2117 248.5495 0001509  45.5653 358.4655 15.73200666  9403,6727.893,91.533,350.774,348.74300000000005,0.0
51894.0,STARLINK-3595,PAYLOAD,2022-04-24 14:00:01,15.73258738,0.0001688,53.2117,246.9013,40.104,92.879,-0.0005834,-0.00081913,0.0,0 STARLINK-3595,1 51894U 22022AU  22114.58334491 -.00081913  00000-0 -58340-3 0  9999,2 51894  53.2117 246.9013 0001688  40.1040  92.8790 15.73258738  9457,6727.728,91.53,350.728,348.457,0.0
51894.0,STARLINK-3595,PAYLOAD,2022-04-25 06:00:00,15.73140225,0.0001551,53.2111,243.6003,40.1797,270.684,0.00019075,0.00026166,0.0,0 STARLINK-3595,1 51894U 22022AU  22115.25001157  .00026166  00000-0  19075-3 0  9993,2 51894  53.2111 243.6003 0001551  40.1797 270.6840 15.73140225  9567,6728.066,91.537,350.974,348.88699999999994,0.0
51894.0,STARLINK-3595,PAYLOAD,2022-04-25 14:00:01,15.73157857,0.0001813,53.2115,241.9524,38.9073,0.8518,0.00020713,0.00028496,0.0,0 STARLINK-3595,1 51894U 22022AU  22115.58334491  .00028496  00000-0  20713-3 0  9998,2 51894  53.2115 241.9524 0001813  38.9073   0.8518 15.73157857  3718,6728.015,91.536,351.1,348.661,0.0
51894.0,STARLINK-3595,PAYLOAD,2022-04-25 22:00:00,15.7320048,0.0001893,53.2115,240.3029,34.6467,93.9793,0.00030074,0.00041799,0.0,0 STARLINK-3595,1 51894U 22022AU  22115.91667824  .00041799  00000-0  30074-3 0  9996,2 51894  53.2115 240.3029 0001893  34.6467  93.9793 15.73200480  3707,6727.894,91.533,351.032,348.485,0.0
51894.0,STARLINK-3595,PAYLOAD,2022-04-26 06:00:00,15.73202014,0.0001696999999999,53.2118,238.6511,34.2693,183.3137,0.00033666,0.00046897,0.0,0 STARLINK-3595,1 51894U 22022AU  22116.25001157  .00046897  00000-0  33666-3 0  9999,2 51894  53.2118 238.6511 0001697  34.2693 183.3137 15.73202014  9724,6727.889,91.533,350.896,348.61300000000006,0.0
51894.0,STARLINK-3595,PAYLOAD,2022-04-26 14:00:01,15.73251079,0.000189,53.212,237.0032,28.5542,278.0258,-9.2808e-05,-0.00013655,0.0,0 STARLINK-3595,1 51894U 22022AU  22116.58335648 -.00013655  00000-0 -92808-4 0  9992,2 51894  53.2120 237.0032 0001890  28.5542 278.0258 15.73251079  3705,6727.75,91.53,350.886,348.343,0.0
51894.0,STARLINK-3595,PAYLOAD,2022-04-26 22:00:00,15.73264498,0.0001973,53.2116,235.3534,25.6154,9.8818,-0.00068947,-0.00096555,0.0,0 STARLINK-3595,1 51894U 22022AU  22116.91667824 -.00096555  00000-0 -68947-3 0  9999,2 51894  53.2116 235.3534 0001973  25.6154   9.8818 15.73264498  9827,6727.7109999999975,91.529,350.904,348.249,0.0
51894.0,STARLINK-3595,PAYLOAD,2022-04-27 14:00:01,15.731721900000002,0.0002193,53.212,232.0542,34.0813,179.3628,0.0004326,0.00060461,0.0,0 STARLINK-3595,1 51894U 22022AU  22117.58335648  .00060461  00000-0  43260-3 0  9995,2 51894  53.2120 232.0542 0002193  34.0813 179.3628 15.73172190  9937,6727.974,91.535,351.315,348.36400000000015,0.0
51894.0,STARLINK-3595,PAYLOAD,2022-04-28 06:00:00,15.73158088,0.0001951,53.2126,228.7528,26.7431,4.5286,0.00078598,0.00110958,0.0,0 STARLINK-3595,1 51894U 22022AU  22118.25001157  .00110958  00000-0  78598-3 0  9994,2 51894  53.2126 228.7528 0001951  26.7431   4.5286 15.73158088 10036,6728.015,91.536,351.19199999999995,348.56699999999995,0.0
